CCSDS_OMM_VERS = 2.0
CREATION_DATE  = 
ORIGINATOR     = 

OBJECT_NAME    = STARLINK-35843
OBJECT_ID      = 2026-018T
CENTER_NAME    = EARTH
REF_FRAME      = TEME
TIME_SYSTEM    = UTC
MEAN_ELEMENT_THEORY = SGP/SGP4

EPOCH          = 2026-02-20T16:51:01.744992
MEAN_MOTION    = 15.75202174
ECCENTRICITY   = .0001842
INCLINATION    = 97.2828
RA_OF_ASC_NODE = 116.6712
ARG_OF_PERICENTER = 78.3793
MEAN_ANOMALY   = 281.7679

EPHEMERIS_TYPE = 0
CLASSIFICATION_TYPE = U
NORAD_CAT_ID   = 67606
ELEMENT_SET_NO = 999
REV_AT_EPOCH   = 463
BSTAR          = .18895E-2
MEAN_MOTION_DOT = .291692E-2
MEAN_MOTION_DDOT = 0

CCSDS_OMM_VERS = 2.0
CREATION_DATE  = 
ORIGINATOR     = 

OBJECT_NAME    = STARLINK-36351
OBJECT_ID      = 2026-018U
CENTER_NAME    = EARTH
REF_FRAME      = TEME
TIME_SYSTEM    = UTC
MEAN_ELEMENT_THEORY = SGP/SGP4

EPOCH          = 2026-02-20T18:00:01.999296
MEAN_MOTION    = 15.75251740
ECCENTRICITY   = .0001447
INCLINATION    = 97.2844
RA_OF_ASC_NODE = 116.7567
ARG_OF_PERICENTER = 90.7147
MEAN_ANOMALY   = 258.9564

EPHEMERIS_TYPE = 0
CLASSIFICATION_TYPE = U
NORAD_CAT_ID   = 67607
ELEMENT_SET_NO = 999
REV_AT_EPOCH   = 468
BSTAR          = -.77517E-3
MEAN_MOTION_DOT = -.114523E-2
MEAN_MOTION_DDOT = 0

CCSDS_OMM_VERS = 2.0
CREATION_DATE  = 
ORIGINATOR     = 

OBJECT_NAME    = STARLINK-36411
OBJECT_ID      = 2026-018V
CENTER_NAME    = EARTH
REF_FRAME      = TEME
TIME_SYSTEM    = UTC
MEAN_ELEMENT_THEORY = SGP/SGP4

EPOCH          = 2026-02-20T17:43:38.959104
MEAN_MOTION    = 15.80945627
ECCENTRICITY   = .0002068
INCLINATION    = 97.2850
RA_OF_ASC_NODE = 116.7731
ARG_OF_PERICENTER = 86.8325
MEAN_ANOMALY   = 273.3180

EPHEMERIS_TYPE = 0
CLASSIFICATION_TYPE = U
NORAD_CAT_ID   = 67608
ELEMENT_SET_NO = 999
REV_AT_EPOCH   = 464
BSTAR          = .17965E-2
MEAN_MOTION_DOT = .360712E-2
MEAN_MOTION_DDOT = 0

CCSDS_OMM_VERS = 2.0
CREATION_DATE  = 
ORIGINATOR     = 

OBJECT_NAME    = STARLINK-36312
OBJECT_ID      = 2026-018W
CENTER_NAME    = EARTH
REF_FRAME      = TEME
TIME_SYSTEM    = UTC
MEAN_ELEMENT_THEORY = SGP/SGP4

EPOCH          = 2026-02-20T18:00:01.999296
MEAN_MOTION    = 15.75276314
ECCENTRICITY   = .0001771
INCLINATION    = 97.2842
RA_OF_ASC_NODE = 116.7602
ARG_OF_PERICENTER = 115.4736
MEAN_ANOMALY   = 246.1821

EPHEMERIS_TYPE = 0
CLASSIFICATION_TYPE = U
NORAD_CAT_ID   = 67609
ELEMENT_SET_NO = 999
REV_AT_EPOCH   = 468
BSTAR          = -.1109E-2
MEAN_MOTION_DOT = -.163043E-2
MEAN_MOTION_DDOT = 0

CCSDS_OMM_VERS = 2.0
CREATION_DATE  = 
ORIGINATOR     = 

OBJECT_NAME    = STARLINK-36387
OBJECT_ID      = 2026-018X
CENTER_NAME    = EARTH
REF_FRAME      = TEME
TIME_SYSTEM    = UTC
MEAN_ELEMENT_THEORY = SGP/SGP4

EPOCH          = 2026-02-20T17:39:52.100352
MEAN_MOTION    = 15.80859803
ECCENTRICITY   = .0001191
INCLINATION    = 97.2854
RA_OF_ASC_NODE = 116.7767
ARG_OF_PERICENTER = 92.7163
MEAN_ANOMALY   = 267.4241

EPHEMERIS_TYPE = 0
CLASSIFICATION_TYPE = U
NORAD_CAT_ID   = 67610
ELEMENT_SET_NO = 999
REV_AT_EPOCH   = 464
BSTAR          = .20828E-2
MEAN_MOTION_DOT = .419469E-2
MEAN_MOTION_DDOT = 0

CCSDS_OMM_VERS = 2.0
CREATION_DATE  = 
ORIGINATOR     = 

OBJECT_NAME    = STARLINK-36636
OBJECT_ID      = 2026-018Y
CENTER_NAME    = EARTH
REF_FRAME      = TEME
TIME_SYSTEM    = UTC
MEAN_ELEMENT_THEORY = SGP/SGP4

EPOCH          = 2026-02-20T17:38:22.321248
MEAN_MOTION    = 15.80266185
ECCENTRICITY   = .0001946
INCLINATION    = 97.2867
RA_OF_ASC_NODE = 116.7715
ARG_OF_PERICENTER = 53.2487
MEAN_ANOMALY   = 306.8959

EPHEMERIS_TYPE = 0
CLASSIFICATION_TYPE = U
NORAD_CAT_ID   = 67611
ELEMENT_SET_NO = 999
REV_AT_EPOCH   = 464
BSTAR          = -.15557E-3
MEAN_MOTION_DOT = -.29109E-3
MEAN_MOTION_DDOT = 0

CCSDS_OMM_VERS = 2.0
CREATION_DATE  = 
ORIGINATOR     = 

OBJECT_NAME    = STARLINK-36407
OBJECT_ID      = 2026-018Z
CENTER_NAME    = EARTH
REF_FRAME      = TEME
TIME_SYSTEM    = UTC
MEAN_ELEMENT_THEORY = SGP/SGP4

EPOCH          = 2026-02-20T18:00:01.999296
MEAN_MOTION    = 15.75269736
ECCENTRICITY   = .0001375
INCLINATION    = 97.2846
RA_OF_ASC_NODE = 116.7770
ARG_OF_PERICENTER = 91.7807
MEAN_ANOMALY   = 305.8819

EPHEMERIS_TYPE = 0
CLASSIFICATION_TYPE = U
NORAD_CAT_ID   = 67612
ELEMENT_SET_NO = 999
REV_AT_EPOCH   = 473
BSTAR          = -.95227E-3
MEAN_MOTION_DOT = -.140345E-2
MEAN_MOTION_DDOT = 0

CCSDS_OMM_VERS = 2.0
CREATION_DATE  = 
ORIGINATOR     = 

OBJECT_NAME    = STARLINK-36597
OBJECT_ID      = 2026-018AA
CENTER_NAME    = EARTH
REF_FRAME      = TEME
TIME_SYSTEM    = UTC
MEAN_ELEMENT_THEORY = SGP/SGP4

EPOCH          = 2026-02-20T17:35:32.204832
MEAN_MOTION    = 15.80864413
ECCENTRICITY   = .000141
INCLINATION    = 97.2854
RA_OF_ASC_NODE = 116.7798
ARG_OF_PERICENTER = 69.0722
MEAN_ANOMALY   = 291.0697

EPHEMERIS_TYPE = 0
CLASSIFICATION_TYPE = U
NORAD_CAT_ID   = 67613
ELEMENT_SET_NO = 999
REV_AT_EPOCH   = 464
BSTAR          = .209E-2
MEAN_MOTION_DOT = .421081E-2
MEAN_MOTION_DDOT = 0

CCSDS_OMM_VERS = 2.0
CREATION_DATE  = 
ORIGINATOR     = 

OBJECT_NAME    = NEONSAT-1A
OBJECT_ID      = 2026-019A
CENTER_NAME    = EARTH
REF_FRAME      = TEME
TIME_SYSTEM    = UTC
MEAN_ELEMENT_THEORY = SGP/SGP4

EPOCH          = 2026-02-20T09:23:15.152640
MEAN_MOTION    = 15.07638747
ECCENTRICITY   = .0012208
INCLINATION    = 97.4106
RA_OF_ASC_NODE = 175.5903
ARG_OF_PERICENTER = 228.9882
MEAN_ANOMALY   = 131.0292

EPHEMERIS_TYPE = 0
CLASSIFICATION_TYPE = U
NORAD_CAT_ID   = 67614
ELEMENT_SET_NO = 999
REV_AT_EPOCH   = 321
BSTAR          = .19129E-3
MEAN_MOTION_DOT = .2858E-4
MEAN_MOTION_DDOT = 0

CCSDS_OMM_VERS = 2.0
CREATION_DATE  = 
ORIGINATOR     = 

OBJECT_NAME    = ELECTRON KICK STAGE R/B
OBJECT_ID      = 2026-019C
CENTER_NAME    = EARTH
REF_FRAME      = TEME
TIME_SYSTEM    = UTC
MEAN_ELEMENT_THEORY = SGP/SGP4

EPOCH          = 2026-02-20T07:34:40.220256
MEAN_MOTION    = 15.68700131
ECCENTRICITY   = .016103
INCLINATION    = 97.4029
RA_OF_ASC_NODE = 177.2133
ARG_OF_PERICENTER = 185.3542
MEAN_ANOMALY   = 174.6006

EPHEMERIS_TYPE = 0
CLASSIFICATION_TYPE = U
NORAD_CAT_ID   = 67616
ELEMENT_SET_NO = 999
REV_AT_EPOCH   = 331
BSTAR          = .17872E-2
MEAN_MOTION_DOT = .432276E-2
MEAN_MOTION_DDOT = .57525E-4

CCSDS_OMM_VERS = 2.0
CREATION_DATE  = 
ORIGINATOR     = 

OBJECT_NAME    = STARLINK-36548
OBJECT_ID      = 2026-020A
CENTER_NAME    = EARTH
REF_FRAME      = TEME
TIME_SYSTEM    = UTC
MEAN_ELEMENT_THEORY = SGP/SGP4

EPOCH          = 2026-02-19T22:34:53.733216
MEAN_MOTION    = 15.76405715
ECCENTRICITY   = .0001158
INCLINATION    = 42.9968
RA_OF_ASC_NODE = 250.1525
ARG_OF_PERICENTER = 252.3981
MEAN_ANOMALY   = 107.6762

EPHEMERIS_TYPE = 0
CLASSIFICATION_TYPE = U
NORAD_CAT_ID   = 67617
ELEMENT_SET_NO = 999
REV_AT_EPOCH   = 328
BSTAR          = .99466E-3
MEAN_MOTION_DOT = .164959E-2
MEAN_MOTION_DDOT = 0

CCSDS_OMM_VERS = 2.0
CREATION_DATE  = 
ORIGINATOR     = 

OBJECT_NAME    = STARLINK-36601
OBJECT_ID      = 2026-020B
CENTER_NAME    = EARTH
REF_FRAME      = TEME
TIME_SYSTEM    = UTC
MEAN_ELEMENT_THEORY = SGP/SGP4

EPOCH          = 2026-02-20T12:51:52.224768
MEAN_MOTION    = 15.82038173
ECCENTRICITY   = .0001823
INCLINATION    = 42.9977
RA_OF_ASC_NODE = 245.9900
ARG_OF_PERICENTER = 252.4752
MEAN_ANOMALY   = 107.5921

EPHEMERIS_TYPE = 0
CLASSIFICATION_TYPE = U
NORAD_CAT_ID   = 67618
ELEMENT_SET_NO = 999
REV_AT_EPOCH   = 338
BSTAR          = .21339E-2
MEAN_MOTION_DOT = .474833E-2
MEAN_MOTION_DDOT = 0

