STARLINK-35843          
1 67606U 26018T   26051.70210353  .00291692  00000+0  18895-2 0  9998
2 67606  97.2828 116.6712 0001842  78.3793 281.7679 15.75202174  4636
STARLINK-36351          
1 67607U 26018U   26051.75002314 -.00114523  00000+0 -77517-3 0  9996
2 67607  97.2844 116.7567 0001447  90.7147 258.9564 15.75251740  4683
STARLINK-36411          
1 67608U 26018V   26051.73864536  .00360712  00000+0  17965-2 0  9998
2 67608  97.2850 116.7731 0002068  86.8325 273.3180 15.80945627  4649
STARLINK-36312          
1 67609U 26018W   26051.75002314 -.00163043  00000+0 -11090-2 0  9992
2 67609  97.2842 116.7602 0001771 115.4736 246.1821 15.75276314  4681
STARLINK-36387          
1 67610U 26018X   26051.73601968  .00419469  00000+0  20828-2 0  9995
2 67610  97.2854 116.7767 0001191  92.7163 267.4241 15.80859803  4649
STARLINK-36636          
1 67611U 26018Y   26051.73498057 -.00029109  00000+0 -15557-3 0  9993
2 67611  97.2867 116.7715 0001946  53.2487 306.8959 15.80266185  4645
STARLINK-36407          
1 67612U 26018Z   26051.75002314 -.00140345  00000+0 -95227-3 0  9991
2 67612  97.2846 116.7770 0001375  91.7807 305.8819 15.75269736  4736
STARLINK-36597          
1 67613U 26018AA  26051.73301163  .00421081  00000+0  20900-2 0  9996
2 67613  97.2854 116.7798 0001410  69.0722 291.0697 15.80864413  4649
NEONSAT-1A              
1 67614U 26019A   26051.39114760  .00002858  00000+0  19129-3 0  9994
2 67614  97.4106 175.5903 0012208 228.9882 131.0292 15.07638747  3217
ELECTRON KICK STAGE R/B 
1 67616U 26019C   26051.31574329  .00432276  57525-4  17872-2 0  9991
2 67616  97.4029 177.2133 0161030 185.3542 174.6006 15.68700131  3315
STARLINK-36548          
1 67617U 26020A   26050.94089969  .00164959  00000+0  99466-3 0  9994
2 67617  42.9968 250.1525 0001158 252.3981 107.6762 15.76405715  3285
STARLINK-36601          
1 67618U 26020B   26051.53602112  .00474833  00000+0  21339-2 0  9990
2 67618  42.9977 245.9900 0001823 252.4752 107.5921 15.82038173  3385
